{
  "type": "FeatureCollection",
  "features": [
    {
      "type": "Feature",
      "properties": {
        "norad_id": 66697,
        "name": "IRIDE FM3",
        "group": "last-30-days",
        "lat": -39.23268607520479,
        "lon": -115.8468664212879,
        "alt_km": 517.520278524602,
        "timestamp": "2025-12-24T16:52:40.178036+00:00",
        "meta_object_name": "IRIDE FM3",
        "meta_object_id": "2025-276AH",
        "meta_epoch": "2025-12-24T06:25:22.374048",
        "meta_mean_motion": 15.18192746,
        "meta_eccentricity": 0.0001337,
        "meta_inclination": 97.4388,
        "meta_ra_of_asc_node": 69.8491,
        "meta_arg_of_pericenter": 149.5304,
        "meta_mean_anomaly": 210.6008,
        "meta_ephemeris_type": 0,
        "meta_classification_type": "U",
        "meta_norad_cat_id": 66697,
        "meta_element_set_no": 999,
        "meta_rev_at_epoch": 387,
        "meta_bstar": 0.0006010467,
        "meta_mean_motion_dot": 0.00012233,
        "meta_mean_motion_ddot": 0,
        "tle_line1": "1 66697U 25276AH  25358.26762007  .00012233  00000+0  60105-3 0  9994",
        "tle_line2": "2 66697  97.4388  69.8491 0001337 149.5304 210.6008 15.18192746  3871"
      },
      "geometry": {
        "type": "Point",
        "coordinates": [
          -115.8468664212879,
          -39.23268607520479
        ]
      }
    },
    {
      "type": "Feature",
      "properties": {
        "norad_id": 66698,
        "name": "IRIDE FM4",
        "group": "last-30-days",
        "lat": 34.960725748288176,
        "lon": -104.51219325941888,
        "alt_km": 512.1413768325092,
        "timestamp": "2025-12-24T16:52:40.178046+00:00",
        "meta_object_name": "IRIDE FM4",
        "meta_object_id": "2025-276AJ",
        "meta_epoch": "2025-12-24T08:00:03.000384",
        "meta_mean_motion": 15.17393336,
        "meta_eccentricity": 0.00028168,
        "meta_inclination": 97.4387,
        "meta_ra_of_asc_node": 69.8832,
        "meta_arg_of_pericenter": 252.4343,
        "meta_mean_anomaly": 33.0288,
        "meta_ephemeris_type": 0,
        "meta_classification_type": "U",
        "meta_norad_cat_id": 66698,
        "meta_element_set_no": 999,
        "meta_rev_at_epoch": 130,
        "meta_bstar": -0.0025918163,
        "meta_mean_motion_dot": -0.00051456,
        "meta_mean_motion_ddot": 0,
        "tle_line1": "1 66698U 25276AJ  25358.33336806 -.00051456  00000+0 -25918-2 0  9991",
        "tle_line2": "2 66698  97.4387  69.8832 0002816 252.4343  33.0288 15.17393336  1300"
      },
      "geometry": {
        "type": "Point",
        "coordinates": [
          -104.51219325941888,
          34.960725748288176
        ]
      }
    },
    {
      "type": "Feature",
      "properties": {
        "norad_id": 66699,
        "name": "IRIDE FM5",
        "group": "last-30-days",
        "lat": 33.51522024869905,
        "lon": -104.78348688457173,
        "alt_km": 512.0072054879565,
        "timestamp": "2025-12-24T16:52:40.178058+00:00",
        "meta_object_name": "IRIDE FM5",
        "meta_object_id": "2025-276AK",
        "meta_epoch": "2025-12-24T03:34:29.520192",
        "meta_mean_motion": 15.17413849,
        "meta_eccentricity": 0.00030917,
        "meta_inclination": 97.4401,
        "meta_ra_of_asc_node": 69.7072,
        "meta_arg_of_pericenter": 249.791,
        "meta_mean_anomaly": 110.2991,
        "meta_ephemeris_type": 0,
        "meta_classification_type": "U",
        "meta_norad_cat_id": 66699,
        "meta_element_set_no": 999,
        "meta_rev_at_epoch": 385,
        "meta_bstar": 0.0010823499,
        "meta_mean_motion_dot": 0.00021623,
        "meta_mean_motion_ddot": 0,
        "tle_line1": "1 66699U 25276AK  25358.14895278  .00021623  00000+0  10823-2 0  9994",
        "tle_line2": "2 66699  97.4401  69.7072 0003091 249.7910 110.2991 15.17413849  3851"
      },
      "geometry": {
        "type": "Point",
        "coordinates": [
          -104.78348688457173,
          33.51522024869905
        ]
      }
    },
    {
      "type": "Feature",
      "properties": {
        "norad_id": 66700,
        "name": "IRIDE FM6",
        "group": "last-30-days",
        "lat": -42.95841123527528,
        "lon": -116.70110347614477,
        "alt_km": 517.371211508048,
        "timestamp": "2025-12-24T16:52:40.178068+00:00",
        "meta_object_name": "IRIDE FM6",
        "meta_object_id": "2025-276AL",
        "meta_epoch": "2025-12-24T06:24:23.819904",
        "meta_mean_motion": 15.18245449,
        "meta_eccentricity": 0.00017516,
        "meta_inclination": 97.4421,
        "meta_ra_of_asc_node": 69.8609,
        "meta_arg_of_pericenter": 156.5685,
        "meta_mean_anomaly": 203.5629,
        "meta_ephemeris_type": 0,
        "meta_classification_type": "U",
        "meta_norad_cat_id": 66700,
        "meta_element_set_no": 999,
        "meta_rev_at_epoch": 387,
        "meta_bstar": 0.00053054317,
        "meta_mean_motion_dot": 0.00010804,
        "meta_mean_motion_ddot": 0,
        "tle_line1": "1 66700U 25276AL  25358.26694236  .00010804  00000+0  53054-3 0  9994",
        "tle_line2": "2 66700  97.4421  69.8609 0001751 156.5685 203.5629 15.18245449  3874"
      },
      "geometry": {
        "type": "Point",
        "coordinates": [
          -116.70110347614477,
          -42.95841123527528
        ]
      }
    },
    {
      "type": "Feature",
      "properties": {
        "norad_id": 66701,
        "name": "IRIDE FM7",
        "group": "last-30-days",
        "lat": 33.77695936093019,
        "lon": -104.72818463708417,
        "alt_km": 511.7562222432525,
        "timestamp": "2025-12-24T16:52:40.178080+00:00",
        "meta_object_name": "IRIDE FM7",
        "meta_object_id": "2025-276AM",
        "meta_epoch": "2025-12-23T22:49:39.683136",
        "meta_mean_motion": 15.17413272,
        "meta_eccentricity": 0.0004485,
        "meta_inclination": 97.4419,
        "meta_ra_of_asc_node": 69.5173,
        "meta_arg_of_pericenter": 239.7436,
        "meta_mean_anomaly": 120.3354,
        "meta_ephemeris_type": 0,
        "meta_classification_type": "U",
        "meta_norad_cat_id": 66701,
        "meta_element_set_no": 999,
        "meta_rev_at_epoch": 382,
        "meta_bstar": -0.00094395,
        "meta_mean_motion_dot": -0.0001888,
        "meta_mean_motion_ddot": 0,
        "tle_line1": "1 66701U 25276AM  25357.95115374 -.00018880  00000+0 -94395-3 0  9998",
        "tle_line2": "2 66701  97.4419  69.5173 0004485 239.7436 120.3354 15.17413272  3826"
      },
      "geometry": {
        "type": "Point",
        "coordinates": [
          -104.72818463708417,
          33.77695936093019
        ]
      }
    },
    {
      "type": "Feature",
      "properties": {
        "norad_id": 66702,
        "name": "IRIDE FM8",
        "group": "last-30-days",
        "lat": 32.66103482046824,
        "lon": -104.94520438055255,
        "alt_km": 512.380711640666,
        "timestamp": "2025-12-24T16:52:40.178091+00:00",
        "meta_object_name": "IRIDE FM8",
        "meta_object_id": "2025-276AN",
        "meta_epoch": "2025-12-24T03:34:15.707424",
        "meta_mean_motion": 15.17412942,
        "meta_eccentricity": 0.00028788,
        "meta_inclination": 97.4396,
        "meta_ra_of_asc_node": 69.7053,
        "meta_arg_of_pericenter": 257.4973,
        "meta_mean_anomaly": 102.5939,
        "meta_ephemeris_type": 0,
        "meta_classification_type": "U",
        "meta_norad_cat_id": 66702,
        "meta_element_set_no": 999,
        "meta_rev_at_epoch": 385,
        "meta_bstar": 0.00054043842,
        "meta_mean_motion_dot": 0.00010747,
        "meta_mean_motion_ddot": 0,
        "tle_line1": "1 66702U 25276AN  25358.14879291  .00010747  00000+0  54044-3 0  9995",
        "tle_line2": "2 66702  97.4396  69.7053 0002878 257.4973 102.5939 15.17412942  3854"
      },
      "geometry": {
        "type": "Point",
        "coordinates": [
          -104.94520438055255,
          32.66103482046824
        ]
      }
    },
    {
      "type": "Feature",
      "properties": {
        "norad_id": 66703,
        "name": "PELICAN-6",
        "group": "last-30-days",
        "lat": 25.306872922417053,
        "lon": -106.20205694445899,
        "alt_km": 512.0574336987793,
        "timestamp": "2025-12-24T16:52:40.178103+00:00",
        "meta_object_name": "PELICAN-6",
        "meta_object_id": "2025-276AP",
        "meta_epoch": "2025-12-23T10:07:52.193568",
        "meta_mean_motion": 15.17422387,
        "meta_eccentricity": 0.00018059,
        "meta_inclination": 97.4406,
        "meta_ra_of_asc_node": 68.9965,
        "meta_arg_of_pericenter": 230.3066,
        "meta_mean_anomaly": 129.8009,
        "meta_ephemeris_type": 0,
        "meta_classification_type": "U",
        "meta_norad_cat_id": 66703,
        "meta_element_set_no": 999,
        "meta_rev_at_epoch": 374,
        "meta_bstar": 0.0031748632,
        "meta_mean_motion_dot": 0.00063935,
        "meta_mean_motion_ddot": 0,
        "tle_line1": "1 66703U 25276AP  25357.42213187  .00063935  00000+0  31749-2 0  9995",
        "tle_line2": "2 66703  97.4406  68.9965 0001805 230.3066 129.8009 15.17422387  3744"
      },
      "geometry": {
        "type": "Point",
        "coordinates": [
          -106.20205694445899,
          25.306872922417053
        ]
      }
    }
  ]
}